     2              NAVIGATION DATA                         RINEX VERSION / TYPE
CCRINEXN V1.6.0 UX  CDDIS               01-JUL-22 13:26     PGM / RUN BY / DATE 
IGS BROADCAST EPHEMERIS FILE                                COMMENT             
    0.7451D-08  0.2235D-07 -0.5960D-07 -0.1192D-06          ION ALPHA           
    0.9216D+05  0.1311D+06 -0.6554D+05 -0.5243D+06          ION BETA            
    0.279396772385D-08 0.355271367880D-14    61440     2217 DELTA-UTC: A0,A1,T,W
    18                                                      LEAP SECONDS        
                                                            END OF HEADER       
 1 22  7  1  0  0  0.0 0.330457929522D-03-0.761701812735D-11 0.000000000000D+00
    0.830000000000D+02-0.534375000000D+01 0.420160358508D-08-0.474549652521D+00
   -0.260770320892D-07 0.120230624452D-01 0.961124897003D-06 0.515366026688D+04
    0.432000000000D+06-0.130385160446D-07 0.199246160632D+01 0.180676579475D-06
    0.987825640251D+00 0.378406250000D+03 0.927216062088D+00-0.833641867387D-08
    0.106075847056D-09 0.100000000000D+01 0.221600000000D+04 0.000000000000D+00
    0.200000000000D+01 0.000000000000D+00 0.512227416039D-08 0.830000000000D+02
    0.424818000000D+06 0.400000000000D+01 0.000000000000D+00 0.000000000000D+00
 2 22  7  1  0  0  0.0-0.652089715004D-03 0.454747350886D-12 0.000000000000D+00
    0.590000000000D+02 0.425000000000D+01 0.462447834237D-08-0.308294876188D+00
   -0.558793544769D-08 0.204220019514D-01 0.127777457237D-05 0.515368974114D+04
    0.432000000000D+06-0.322237610817D-06 0.190031835351D+01 0.223517417908D-07
    0.965876807366D+00 0.360718750000D+03-0.141044384413D+01-0.868964767299D-08
    0.205008539429D-09 0.100000000000D+01 0.221600000000D+04 0.000000000000D+00
    0.200000000000D+01 0.000000000000D+00-0.176951289177D-07 0.590000000000D+02
    0.428868000000D+06 0.400000000000D+01 0.000000000000D+00 0.000000000000D+00
 3 22  7  1  0  0  0.0-0.294522382319D-03-0.111413100967D-10 0.000000000000D+00
    0.870000000000D+02-0.126625000000D+03 0.413874382386D-08-0.157662597927D+01
   -0.646151602268D-05 0.434594263788D-02 0.696629285812D-05 0.515360495758D+04
    0.432000000000D+06 0.100582838059D-06 0.302615339882D+01-0.186264514923D-08
    0.974730260308D+00 0.252218750000D+03 0.986506922007D+00-0.778068123946D-08
    0.300012496725D-10 0.100000000000D+01 0.221600000000D+04 0.000000000000D+00
    0.400000000000D+01 0.000000000000D+00 0.186264514923D-08 0.870000000000D+02
    0.424818000000D+06 0.400000000000D+01 0.000000000000D+00 0.000000000000D+00
 4 22  7  1  0  0  0.0-0.151195097715D-03 0.432009983342D-11 0.000000000000D+00
    0.175000000000D+03-0.176562500000D+02 0.463340728573D-08 0.132666935025D+01
   -0.741332769394D-06 0.186233117711D-02 0.886805355549D-05 0.515359816742D+04
    0.432000000000D+06 0.134110450745D-06-0.217606624290D+01-0.372529029846D-08
    0.961379083286D+00 0.208000000000D+03-0.298264850900D+01-0.790390065776D-08
    0.451447376024D-09 0.100000000000D+01 0.221600000000D+04 0.000000000000D+00
    0.200000000000D+01 0.000000000000D+00-0.465661287308D-08 0.431000000000D+03
    0.424818000000D+06 0.400000000000D+01 0.000000000000D+00 0.000000000000D+00
 5 22  7  1  0  0  0.0-0.874702818692D-04-0.136424205266D-11 0.000000000000D+00
    0.700000000000D+02-0.124500000000D+03 0.440589780904D-08 0.215499800185D+01
   -0.647269189358D-05 0.608627137262D-02 0.732392072678D-05 0.515375436401D+04
    0.432000000000D+06-0.447034835815D-07 0.298397094452D+01-0.135973095894D-06
    0.961730324065D+00 0.240562500000D+03 0.104909796712D+01-0.786461330700D-08
   -0.928610108910D-11 0.100000000000D+01 0.221600000000D+04 0.000000000000D+00
    0.200000000000D+01 0.000000000000D+00-0.111758708954D-07 0.700000000000D+02
    0.429216000000D+06 0.400000000000D+01 0.000000000000D+00 0.000000000000D+00
 6 22  7  1  0  0  0.0 0.365719199181D-03 0.160298441187D-10 0.000000000000D+00
    0.700000000000D+01-0.105937500000D+02 0.406159775328D-08-0.243589596999D+00
   -0.743195414543D-06 0.247329927515D-02 0.605359673500D-06 0.515375303841D+04
    0.432000000000D+06 0.186264514923D-08 0.198417821306D+01-0.149011611938D-07
    0.987151496879D+00 0.376031250000D+03-0.859494869023D+00-0.814962517889D-08
    0.104647216119D-09 0.100000000000D+01 0.221600000000D+04 0.000000000000D+00
    0.200000000000D+01 0.000000000000D+00 0.372529029846D-08 0.700000000000D+01
    0.424818000000D+06 0.400000000000D+01 0.000000000000D+00 0.000000000000D+00
 7 22  7  1  0  0  0.0 0.320688821375D-03-0.102318153950D-11 0.000000000000D+00
    0.800000000000D+01 0.406250000000D+00 0.512235622384D-08-0.112639254291D+01
    0.540167093277D-07 0.162914454704D-01 0.493787229061D-05 0.515364370155D+04
    0.432000000000D+06 0.314787030220D-06-0.115804097324D+01 0.251457095146D-06
    0.950269980365D+00 0.276937500000D+03-0.225575559657D+01-0.821319925557D-08
   -0.185364864048D-09 0.100000000000D+01 0.221600000000D+04 0.000000000000D+00
    0.200000000000D+01 0.000000000000D+00-0.111758708954D-07 0.800000000000D+01
    0.424818000000D+06 0.400000000000D+01 0.000000000000D+00 0.000000000000D+00
 8 22  7  1  0  0  0.0-0.743148848414D-04-0.159161572810D-11 0.000000000000D+00
    0.700000000000D+02 0.128906250000D+03 0.407802700905D-08 0.169534040333D+01
    0.670738518238D-05 0.736711418722D-02 0.748597085476D-05 0.515356097794D+04
    0.432000000000D+06-0.651925802231D-07 0.909070835226D+00 0.633299350738D-07
    0.963242050944D+00 0.235312500000D+03 0.168001744827D+00-0.790211486909D-08
    0.685742849656D-10 0.100000000000D+01 0.221600000000D+04 0.000000000000D+00
    0.282842707634D+01 0.000000000000D+00 0.512227416039D-08 0.700000000000D+02
    0.427159000000D+06 0.400000000000D+01 0.000000000000D+00 0.000000000000D+00
 9 22  7  1  0  0  0.0-0.323492102325D-03 0.363797880709D-11 0.000000000000D+00
    0.660000000000D+02-0.221875000000D+02 0.467840916023D-08 0.225150478380D+01
   -0.111944973469D-05 0.220100383740D-02 0.907853245735D-05 0.515380460167D+04
    0.432000000000D+06 0.502914190292D-07-0.223011883059D+01-0.102445483208D-06
    0.954498915191D+00 0.197593750000D+03 0.190552756195D+01-0.787639951223D-08
    0.420374653149D-09 0.100000000000D+01 0.221600000000D+04 0.000000000000D+00
    0.200000000000D+01 0.000000000000D+00 0.139698386192D-08 0.660000000000D+02
    0.424818000000D+06 0.400000000000D+01 0.000000000000D+00 0.000000000000D+00
10 22  7  1  0  0  0.0-0.475155189633D-03-0.142108547152D-10 0.000000000000D+00
    0.160000000000D+02-0.131781250000D+03 0.404766860164D-08-0.248081753797D+01
   -0.693835318088D-05 0.766456383281D-02 0.791065394878D-05 0.515369055748D+04
    0.432000000000D+06 0.763684511185D-07 0.302341392526D+01-0.162050127983D-06
    0.974527510103D+00 0.233718750000D+03-0.250141162387D+01-0.773317926081D-08
    0.107147320259D-11 0.100000000000D+01 0.221600000000D+04 0.000000000000D+00
    0.200000000000D+01 0.000000000000D+00 0.232830643654D-08 0.160000000000D+02
    0.424850000000D+06 0.400000000000D+01 0.000000000000D+00 0.000000000000D+00
11 22  7  1  0  0  0.0-0.121467746794D-04 0.159161572810D-11 0.000000000000D+00
    0.720000000000D+02-0.194062500000D+02 0.461590655675D-08 0.171033090880D+01
   -0.124983489513D-05 0.501910457388D-03 0.659376382828D-06 0.515359976387D+04
    0.432000000000D+06 0.260770320892D-07 0.203309222492D+01-0.111758708954D-07
    0.963057230262D+00 0.367937500000D+03 0.285492187466D+01-0.836820571221D-08
    0.496449250533D-10 0.100000000000D+01 0.221600000000D+04 0.000000000000D+00
    0.200000000000D+01 0.000000000000D+00-0.838190317154D-08 0.840000000000D+03
    0.426678000000D+06 0.400000000000D+01 0.000000000000D+00 0.000000000000D+00
12 22  7  1  0  0  0.0-0.239363405854D-03-0.591171556152D-11 0.000000000000D+00
    0.390000000000D+02 0.361250000000D+02 0.400730977768D-08-0.176610491219D+01
    0.184215605259D-05 0.856952660251D-02 0.991672277451D-05 0.515377856827D+04
    0.432000000000D+06 0.242143869400D-06-0.447575851102D-01 0.113621354103D-06
    0.969170372853D+00 0.193531250000D+03 0.130968007444D+01-0.752209903990D-08
   -0.568952270574D-09 0.100000000000D+01 0.221600000000D+04 0.000000000000D+00
    0.200000000000D+01 0.000000000000D+00-0.125728547573D-07 0.390000000000D+02
    0.424818000000D+06 0.400000000000D+01 0.000000000000D+00 0.000000000000D+00
13 22  7  1  0  0  0.0 0.339773949236D-03 0.704858393874D-11 0.000000000000D+00
    0.940000000000D+02 0.937500000000D-01 0.453590322429D-08 0.131156964087D+01
    0.912696123123D-07 0.606170494575D-02 0.887177884579D-05 0.515367597389D+04
    0.432000000000D+06-0.137835741043D-06-0.207508545808D+01 0.106170773506D-06
    0.968628146656D+00 0.214125000000D+03 0.914508406637D+00-0.790318634229D-08
    0.475376944215D-09 0.100000000000D+01 0.221600000000D+04 0.000000000000D+00
    0.200000000000D+01 0.000000000000D+00-0.116415321827D-07 0.940000000000D+02
    0.424851000000D+06 0.400000000000D+01 0.000000000000D+00 0.000000000000D+00
14 22  7  1  0  0  0.0-0.112010166049D-03-0.113686837722D-12 0.000000000000D+00
    0.214000000000D+03 0.188437500000D+02 0.436125309227D-08-0.181050857353D+01
    0.103376805782D-05 0.207058270462D-02 0.994652509689D-05 0.515365961266D+04
    0.432000000000D+06-0.124797224999D-06-0.781650456936D-01 0.335276126862D-07
    0.952539930369D+00 0.184468750000D+03-0.311662568027D+01-0.773139347214D-08
   -0.500020827875D-09 0.100000000000D+01 0.221600000000D+04 0.000000000000D+00
    0.200000000000D+01 0.000000000000D+00-0.791624188423D-08 0.982000000000D+03
    0.424818000000D+06 0.400000000000D+01 0.000000000000D+00 0.000000000000D+00
